{"type": "FeatureCollection", "features": [ {"type": "Feature", "properties": {"norad_id": 32384, "name": "GPS BIIRM-5 (PRN 29)", "group": "gps-ops", "lat": 54.72178011635011, "lon": 22.275330151154694, "alt_km": 20139.89295633752, "timestamp": "2025-12-14T16:47:40.942627+00:00", "meta": {"OBJECT_NAME": "GPS BIIRM-5 (PRN 29)", "OBJECT_ID": "2007-062A", "EPOCH": "2025-12-13T07:26:31.680096", "MEAN_MOTION": 2.00577339, "ECCENTRICITY": 0.00322377, "INCLINATION": 55.1816, "RA_OF_ASC_NODE": 281.623, "ARG_OF_PERICENTER": 162.4378, "MEAN_ANOMALY": 10.5516, "EPHEMERIS_TYPE": 0, "CLASSIFICATION_TYPE": "U", "NORAD_CAT_ID": 32384, "ELEMENT_SET_NO": 999, "REV_AT_EPOCH": 13178, "BSTAR": 0, "MEAN_MOTION_DOT": -8e-07, "MEAN_MOTION_DDOT": 0}, "tle": {"line1": "1 32384U 07062A   25347.31008889 -.00000080  00000+0  00000+0 0  9990", "line2": "2 32384  55.1816 281.6230 0032237 162.4378  10.5516  2.00577339131782"}}, "geometry": {"type": "Point", "coordinates": [22.275330151154694, 54.72178011635011]}}, {"type": "Feature", "properties": {"norad_id": 32711, "name": "GPS BIIRM-6 (PRN 07)", "group": "gps-ops", "lat": 18.024458328907464, "lon": 170.73354236914582, "alt_km": 20570.53706555706, "timestamp": "2025-12-14T16:47:40.942638+00:00", "meta": {"OBJECT_NAME": "GPS BIIRM-6 (PRN 07)", "OBJECT_ID": "2008-012A", "EPOCH": "2025-12-13T16:06:10.352160", "MEAN_MOTION": 2.00565694, "ECCENTRICITY": 0.02024855, "INCLINATION": 54.4771, "RA_OF_ASC_NODE": 157.3357, "ARG_OF_PERICENTER": 244.9586, "MEAN_ANOMALY": 112.9395, "EPHEMERIS_TYPE": 0, "CLASSIFICATION_TYPE": "U", "NORAD_CAT_ID": 32711, "ELEMENT_SET_NO": 999, "REV_AT_EPOCH": 13003, "BSTAR": 0, "MEAN_MOTION_DOT": 1e-06, "MEAN_MOTION_DDOT": 0}, "tle": {"line1": "1 32711U 08012A   25347.67095315  .00000100  00000+0  00000+0 0  9991", "line2": "2 32711  54.4771 157.3357 0202485 244.9586 112.9395  2.00565694130038"}}, "geometry": {"type": "Point", "coordinates": [170.73354236914582, 18.024458328907464]}}, {"type": "Feature", "properties": {"norad_id": 35752, "name": "GPS BIIRM-8 (PRN 05)", "group": "gps-ops", "lat": 32.474810550517, "lon": 60.046292373138044, "alt_km": 20074.669868672958, "timestamp": "2025-12-14T16:47:40.942649+00:00", "meta": {"OBJECT_NAME": "GPS BIIRM-8 (PRN 05)", "OBJECT_ID": "2009-043A", "EPOCH": "2025-12-13T15:33:53.607168", "MEAN_MOTION": 2.00565679, "ECCENTRICITY": 0.00517811, "INCLINATION": 56.0916, "RA_OF_ASC_NODE": 34.7471, "ARG_OF_PERICENTER": 81.8933, "MEAN_ANOMALY": 279.8016, "EPHEMERIS_TYPE": 0, "CLASSIFICATION_TYPE": "U", "NORAD_CAT_ID": 35752, "ELEMENT_SET_NO": 999, "REV_AT_EPOCH": 11964, "BSTAR": 0, "MEAN_MOTION_DOT": -9.6e-07, "MEAN_MOTION_DDOT": 0}, "tle": {"line1": "1 35752U 09043A   25347.64853712 -.00000096  00000+0  00000+0 0  9999", "line2": "2 35752  56.0916  34.7471 0051781  81.8933 279.8016  2.00565679119645"}}, "geometry": {"type": "Point", "coordinates": [60.046292373138044, 32.474810550517]}}, {"type": "Feature", "properties": {"norad_id": 36585, "name": "GPS BIIF-1  (PRN 25)", "group": "gps-ops", "lat": 15.747758229072733, "lon": 24.312547685308534, "alt_km": 20208.566746915443, "timestamp": "2025-12-14T16:47:40.942660+00:00", "meta": {"OBJECT_NAME": "GPS BIIF-1  (PRN 25)", "OBJECT_ID": "2010-022A", "EPOCH": "2025-12-13T05:27:57.415104", "MEAN_MOTION": 2.00553278, "ECCENTRICITY": 0.01261295, "INCLINATION": 54.3, "RA_OF_ASC_NODE": 216.0542, "ARG_OF_PERICENTER": 65.0762, "MEAN_ANOMALY": 111.1577, "EPHEMERIS_TYPE": 0, "CLASSIFICATION_TYPE": "U", "NORAD_CAT_ID": 36585, "ELEMENT_SET_NO": 999, "REV_AT_EPOCH": 11386, "BSTAR": 0, "MEAN_MOTION_DOT": 3.5e-07, "MEAN_MOTION_DDOT": 0}, "tle": {"line1": "1 36585U 10022A   25347.22774786  .00000035  00000+0  00000+0 0  9992", "line2": "2 36585  54.3000 216.0542 0126129  65.0762 111.1577  2.00553278113862"}}, "geometry": {"type": "Point", "coordinates": [24.312547685308534, 15.747758229072733]}}, {"type": "Feature", "properties": {"norad_id": 38833, "name": "GPS BIIF-3  (PRN 24)", "group": "gps-ops", "lat": -51.35430737046212, "lon": 38.71404990569929, "alt_km": 20643.90482783077, "timestamp": "2025-12-14T16:47:40.942671+00:00", "meta": {"OBJECT_NAME": "GPS BIIF-3  (PRN 24)", "OBJECT_ID": "2012-053A", "EPOCH": "2025-12-13T20:21:34.724448", "MEAN_MOTION": 2.00565042, "ECCENTRICITY": 0.01758819, "INCLINATION": 53.5579, "RA_OF_ASC_NODE": 151.1931, "ARG_OF_PERICENTER": 64.0051, "MEAN_ANOMALY": 297.7998, "EPHEMERIS_TYPE": 0, "CLASSIFICATION_TYPE": "U", "NORAD_CAT_ID": 38833, "ELEMENT_SET_NO": 999, "REV_AT_EPOCH": 9572, "BSTAR": 0, "MEAN_MOTION_DOT": 9.2e-07, "MEAN_MOTION_DDOT": 0}, "tle": {"line1": "1 38833U 12053A   25347.84831857  .00000092  00000+0  00000+0 0  9990", "line2": "2 38833  53.5579 151.1931 0175881  64.0051 297.7998  2.00565042 95726"}}, "geometry": {"type": "Point", "coordinates": [38.71404990569929, -51.35430737046212]}}, {"type": "Feature", "properties": {"norad_id": 39166, "name": "GPS BIIF-4  (PRN 27)", "group": "gps-ops", "lat": -5.794675797066213, "lon": -87.65195034353162, "alt_km": 19973.55805065179, "timestamp": "2025-12-14T16:47:40.942682+00:00", "meta": {"OBJECT_NAME": "GPS BIIF-4  (PRN 27)", "OBJECT_ID": "2013-023A", "EPOCH": "2025-12-13T05:07:46.586496", "MEAN_MOTION": 2.0056518, "ECCENTRICITY": 0.01379131, "INCLINATION": 54.6516, "RA_OF_ASC_NODE": 276.5489, "ARG_OF_PERICENTER": 48.6136, "MEAN_ANOMALY": 312.5751, "EPHEMERIS_TYPE": 0, "CLASSIFICATION_TYPE": "U", "NORAD_CAT_ID": 39166, "ELEMENT_SET_NO": 999, "REV_AT_EPOCH": 9215, "BSTAR": 0, "MEAN_MOTION_DOT": -7.6e-07, "MEAN_MOTION_DDOT": 0}, "tle": {"line1": "1 39166U 13023A   25347.21373364 -.00000076  00000+0  00000+0 0  9996", "line2": "2 39166  54.6516 276.5489 0137913  48.6136 312.5751  2.00565180 92155"}}, "geometry": {"type": "Point", "coordinates": [-87.65195034353162, -5.794675797066213]}}, {"type": "Feature", "properties": {"norad_id": 39533, "name": "GPS BIIF-5  (PRN 30)", "group": "gps-ops", "lat": -2.056548698489617, "lon": 155.3205384423136, "alt_km": 20318.52339647335, "timestamp": "2025-12-14T16:47:40.942693+00:00", "meta": {"OBJECT_NAME": "GPS BIIF-5  (PRN 30)", "OBJECT_ID": "2014-008A", "EPOCH": "2025-12-12T17:01:11.546688", "MEAN_MOTION": 2.00574462, "ECCENTRICITY": 0.00792236, "INCLINATION": 53.6311, "RA_OF_ASC_NODE": 156.9259, "ARG_OF_PERICENTER": 226.5032, "MEAN_ANOMALY": 132.848, "EPHEMERIS_TYPE": 0, "CLASSIFICATION_TYPE": "U", "NORAD_CAT_ID": 39533, "ELEMENT_SET_NO": 999, "REV_AT_EPOCH": 8594, "BSTAR": 0, "MEAN_MOTION_DOT": 9.5e-07, "MEAN_MOTION_DDOT": 0}, "tle": {"line1": "1 39533U 14008A   25346.70916142  .00000095  00000+0  00000+0 0  9998", "line2": "2 39533  53.6311 156.9259 0079223 226.5032 132.8480  2.00574462 85946"}}, "geometry": {"type": "Point", "coordinates": [155.3205384423136, -2.056548698489617]}}, {"type": "Feature", "properties": {"norad_id": 39741, "name": "GPS BIIF-6  (PRN 06)", "group": "gps-ops", "lat": 22.745846195850568, "lon": 142.62616126886147, "alt_km": 20280.885402202046, "timestamp": "2025-12-14T16:47:40.942704+00:00", "meta": {"OBJECT_NAME": "GPS BIIF-6  (PRN 06)", "OBJECT_ID": "2014-026A", "EPOCH": "2025-12-13T23:45:04.300704", "MEAN_MOTION": 2.00561334, "ECCENTRICITY": 0.00392152, "INCLINATION": 56.5831, "RA_OF_ASC_NODE": 338.7277, "ARG_OF_PERICENTER": 318.7582, "MEAN_ANOMALY": 40.9585, "EPHEMERIS_TYPE": 0, "CLASSIFICATION_TYPE": "U", "NORAD_CAT_ID": 39741, "ELEMENT_SET_NO": 999, "REV_AT_EPOCH": 8482, "BSTAR": 0, "MEAN_MOTION_DOT": -8.7e-07, "MEAN_MOTION_DDOT": 0}, "tle": {"line1": "1 39741U 14026A   25347.98963311 -.00000087  00000+0  00000+0 0  9992", "line2": "2 39741  56.5831 338.7277 0039215 318.7582  40.9585  2.00561334 84822"}}, "geometry": {"type": "Point", "coordinates": [142.62616126886147, 22.745846195850568]}}, {"type": "Feature", "properties": {"norad_id": 40105, "name": "GPS BIIF-7  (PRN 09)", "group": "gps-ops", "lat": 55.241609835646905, "lon": -174.52727887342016, "alt_km": 20099.8875293615, "timestamp": "2025-12-14T16:47:40.942715+00:00", "meta": {"OBJECT_NAME": "GPS BIIF-7  (PRN 09)", "OBJECT_ID": "2014-045A", "EPOCH": "2025-12-12T01:59:18.865536", "MEAN_MOTION": 2.00572516, "ECCENTRICITY": 0.00326941, "INCLINATION": 55.2287, "RA_OF_ASC_NODE": 95.9251, "ARG_OF_PERICENTER": 119.8618, "MEAN_ANOMALY": 240.4523, "EPHEMERIS_TYPE": 0, "CLASSIFICATION_TYPE": "U", "NORAD_CAT_ID": 40105, "ELEMENT_SET_NO": 999, "REV_AT_EPOCH": 8232, "BSTAR": 0, "MEAN_MOTION_DOT": -9e-08, "MEAN_MOTION_DDOT": 0}, "tle": {"line1": "1 40105U 14045A   25346.08285724 -.00000009  00000+0  00000+0 0  9998", "line2": "2 40105  55.2287  95.9251 0032694 119.8618 240.4523  2.00572516 82323"}}, "geometry": {"type": "Point", "coordinates": [-174.52727887342016, 55.241609835646905]}}, {"type": "Feature", "properties": {"norad_id": 40294, "name": "GPS BIIF-8  (PRN 03)", "group": "gps-ops", "lat": 0.7296748379223058, "lon": -142.38975009022187, "alt_km": 20236.728729036124, "timestamp": "2025-12-14T16:47:40.942726+00:00", "meta": {"OBJECT_NAME": "GPS BIIF-8  (PRN 03)", "OBJECT_ID": "2014-068A", "EPOCH": "2025-12-13T10:57:14.379552", "MEAN_MOTION": 2.00564944, "ECCENTRICITY": 0.00607799, "INCLINATION": 56.8584, "RA_OF_ASC_NODE": 38.1182, "ARG_OF_PERICENTER": 69.1634, "MEAN_ANOMALY": 291.5378, "EPHEMERIS_TYPE": 0, "CLASSIFICATION_TYPE": "U", "NORAD_CAT_ID": 40294, "ELEMENT_SET_NO": 999, "REV_AT_EPOCH": 8148, "BSTAR": 0, "MEAN_MOTION_DOT": -9.5e-07, "MEAN_MOTION_DDOT": 0}, "tle": {"line1": "1 40294U 14068A   25347.45641643 -.00000095  00000+0  00000+0 0  9995", "line2": "2 40294  56.8584  38.1182 0060779  69.1634 291.5378  2.00564944 81488"}}, "geometry": {"type": "Point", "coordinates": [-142.38975009022187, 0.7296748379223058]}}]}